CTC2_L_00234016-03
1 43852U 24845VM  26070.40844907  .00000000  00000+0  00000-0 0  9995
2 43852  95.0000 180.0000 0000000   0.0000   0.0000 14.24551792    18
CTC2_L_00234016-04
1 43853U 22001QT  26070.40844907  .00000000  00000+0  00000-0 0  9998
2 43853  95.0000 180.0000 0000000   0.0000  90.0000 14.24551792    18
CTC2_L_00234017-01
1 43854U 25757SL  26070.40844907  .00000000  00000+0  00000-0 0  9990
2 43854  95.0000 192.0000 0000000   0.0000 192.0000 14.24551792    15
CTC2_L_00234017-02
1 43855U 26230LR  26070.40844907  .00000000  00000+0  00000-0 0  9998
2 43855  95.0000 192.0000 0000000   0.0000 282.0000 14.24551792    16
CTC2_L_00234017-03
1 43856U 24164J   26070.40844907  .00000000  00000+0  00000-0 0  9993
2 43856  95.0000 192.0000 0000000   0.0000  12.0000 14.24551792    18
CTC2_L_00234017-04
1 43857U 26715AJ  26070.40844907  .00000000  00000+0  00000-0 0  9998
2 43857  95.0000 192.0000 0000000   0.0000 102.0000 14.24551792    19
CTC2_L_00234018-01
1 43858U 26415QL  26070.40844907  .00000000  00000+0  00000-0 0  9996
2 43858  95.0000 204.0000 0000000   0.0000 204.0000 14.24551792    17
CTC2_L_00234018-02
1 43859U 24241XM  26070.40844907  .00000000  00000+0  00000-0 0  9992
2 43859  95.0000 204.0000 0000000   0.0000 294.0000 14.24551792    17
CTC2_L_00234018-03
1 43860U 25729ZT  26070.40844907  .00000000  00000+0  00000-0 0  9996
2 43860  95.0000 204.0000 0000000   0.0000  24.0000 14.24551792    10
CTC2_L_00234018-04
1 43861U 24499IJ  26070.40844907  .00000000  00000+0  00000-0 0  9990
2 43861  95.0000 204.0000 0000000   0.0000 114.0000 14.24551792    11
CTC2_L_00234019-01
1 43862U 22674KX  26070.40844907  .00000000  00000+0  00000-0 0  9994
2 43862  95.0000 216.0000 0000000   0.0000 216.0000 14.24551792    18
CTC2_L_00234019-02
1 43863U 23786XH  26070.40844907  .00000000  00000+0  00000-0 0  9990
2 43863  95.0000 216.0000 0000000   0.0000 306.0000 14.24551792    19
CTC2_L_00234019-03
1 43864U 25932MK  26070.40844907  .00000000  00000+0  00000-0 0  9996
2 43864  95.0000 216.0000 0000000   0.0000  36.0000 14.24551792    10
CTC2_L_00234019-04
1 43865U 25975DD  26070.40844907  .00000000  00000+0  00000-0 0  9994
2 43865  95.0000 216.0000 0000000   0.0000 126.0000 14.24551792    11
CTC2_L_00234020-01
1 43866U 25314BL  26070.40844907  .00000000  00000+0  00000-0 0  9992
2 43866  95.0000 228.0000 0000000   0.0000 228.0000 14.24551792    18
CTC2_L_00234020-02
1 43867U 22718WZ  26070.40844907  .00000000  00000+0  00000-0 0  9998
2 43867  95.0000 228.0000 0000000   0.0000 318.0000 14.24551792    19
CTC2_L_00234020-03
1 43868U 24519IZ  26070.40844907  .00000000  00000+0  00000-0 0  9990
2 43868  95.0000 228.0000 0000000   0.0000  48.0000 14.24551792    10
CTC2_L_00234020-04
1 43869U 24063TA  26070.40844907  .00000000  00000+0  00000-0 0  9995
2 43869  95.0000 228.0000 0000000   0.0000 138.0000 14.24551792    11
CTC2_L_00234021-01
1 43870U 24251GP  26070.40844907  .00000000  00000+0  00000-0 0  9996
2 43870  95.0000 240.0000 0000000   0.0000 240.0000 14.24551792    11
CTC2_L_00234021-02
1 43871U 26422DA  26070.40844907  .00000000  00000+0  00000-0 0  9999
2 43871  95.0000 240.0000 0000000   0.0000 330.0000 14.24551792    12
CTC2_L_00234021-03
1 43872U 23269IR  26070.40844907  .00000000  00000+0  00000-0 0  9996
2 43872  95.0000 240.0000 0000000   0.0000  60.0000 14.24551792    13
CTC2_L_00234021-04
1 43873U 25084EX  26070.40844907  .00000000  00000+0  00000-0 0  9994
2 43873  95.0000 240.0000 0000000   0.0000 150.0000 14.24551792    14
CTC2_L_00234022-01
1 43874U 23969IA  26070.40844907  .00000000  00000+0  00000-0 0  9995
2 43874  95.0000 252.0000 0000000   0.0000 252.0000 14.24551792    11
CTC2_L_00234022-02
1 43875U 24474RF  26070.40844907  .00000000  00000+0  00000-0 0  9998
2 43875  95.0000 252.0000 0000000   0.0000 342.0000 14.24551792    12
CTC2_L_00234022-03
1 43876U 24517WF  26070.40844907  .00000000  00000+0  00000-0 0  9997
2 43876  95.0000 252.0000 0000000   0.0000  72.0000 14.24551792    13
CTC2_L_00234022-04
1 43877U 25530H   26070.40844907  .00000000  00000+0  00000-0 0  9994
2 43877  95.0000 252.0000 0000000   0.0000 162.0000 14.24551792    14
CTC2_L_00234023-01
1 43878U 23839YP  26070.40844907  .00000000  00000+0  00000-0 0  9995
2 43878  95.0000 264.0000 0000000   0.0000 264.0000 14.24551792    11
CTC2_L_00234023-02
1 43879U 23554DM  26070.40844907  .00000000  00000+0  00000-0 0  9990
2 43879  95.0000 264.0000 0000000   0.0000 354.0000 14.24551792    12
CTC2_L_00234023-03
1 43880U 24761AS  26070.40844907  .00000000  00000+0  00000-0 0  9993
2 43880  95.0000 264.0000 0000000   0.0000  84.0000 14.24551792    14
CTC2_L_00234023-04
1 43881U 23929WW  26070.40844907  .00000000  00000+0  00000-0 0  9999
2 43881  95.0000 264.0000 0000000   0.0000 174.0000 14.24551792    15
CTC2_L_00234024-01
1 43882U 24962TY  26070.40844907  .00000000  00000+0  00000-0 0  9998
2 43882  95.0000 276.0000 0000000   0.0000 276.0000 14.24551792    12
CTC2_L_00234024-02
1 43883U 22277FJ  26070.40844907  .00000000  00000+0  00000-0 0  9996
2 43883  95.0000 276.0000 0000000   0.0000   6.0000 14.24551792    14
CTC2_L_00234024-03
1 43884U 26732ZF  26070.40844907  .00000000  00000+0  00000-0 0  9997
2 43884  95.0000 276.0000 0000000   0.0000  96.0000 14.24551792    14
CTC2_L_00234024-04
1 43885U 24124RR  26070.40844907  .00000000  00000+0  00000-0 0  9991
2 43885  95.0000 276.0000 0000000   0.0000 186.0000 14.24551792    15
CTC2_L_00234025-01
1 43886U 26143SY  26070.40844907  .00000000  00000+0  00000-0 0  9995
2 43886  95.0000 288.0000 0000000   0.0000 288.0000 14.24551792    12
CTC2_L_00234025-02
1 43887U 22148QY  26070.40844907  .00000000  00000+0  00000-0 0  9997
2 43887  95.0000 288.0000 0000000   0.0000  18.0000 14.24551792    14
CTC2_L_00234025-03
1 43888U 24505IM  26070.40844907  .00000000  00000+0  00000-0 0  9997
2 43888  95.0000 288.0000 0000000   0.0000 108.0000 14.24551792    15
CTC2_L_00234025-04
1 43889U 23037FP  26070.40844907  .00000000  00000+0  00000-0 0  9997
2 43889  95.0000 288.0000 0000000   0.0000 198.0000 14.24551792    15
CTC2_L_00234026-01
1 43890U 22881SK  26070.40844907  .00000000  00000+0  00000-0 0  9995
2 43890  95.0000 300.0000 0000000   0.0000 300.0000 14.24551792    17
CTC2_L_00234026-02
1 43891U 26454MH  26070.40844907  .00000000  00000+0  00000-0 0  9996
2 43891  95.0000 300.0000 0000000   0.0000  30.0000 14.24551792    18
CTC2_L_00234026-03
1 43892U 23861HQ  26070.40844907  .00000000  00000+0  00000-0 0  9996
2 43892  95.0000 300.0000 0000000   0.0000 120.0000 14.24551792    19
CTC2_L_00234026-04
1 43893U 25657BA  26070.40844907  .00000000  00000+0  00000-0 0  9992
2 43893  95.0000 300.0000 0000000   0.0000 210.0000 14.24551792    10
CTC2_L_00234027-01
1 43894U 26796QT  26070.40844907  .00000000  00000+0  00000-0 0  9998
2 43894  95.0000 312.0000 0000000   0.0000 312.0000 14.24551792    17
CTC2_L_00234027-02
1 43895U 26590IQ  26070.40844907  .00000000  00000+0  00000-0 0  9991
2 43895  95.0000 312.0000 0000000   0.0000  42.0000 14.24551792    18
CTC2_L_00234027-03
1 43896U 23307IH  26070.40844907  .00000000  00000+0  00000-0 0  9995
2 43896  95.0000 312.0000 0000000   0.0000 132.0000 14.24551792    19
CTC2_L_00234027-04
1 43897U 22680FE  26070.40844907  .00000000  00000+0  00000-0 0  9999
2 43897  95.0000 312.0000 0000000   0.0000 222.0000 14.24551792    10
CTC2_L_00234028-01
1 43898U 25665XI  26070.40844907  .00000000  00000+0  00000-0 0  9996
2 43898  95.0000 324.0000 0000000   0.0000 324.0000 14.24551792    17
CTC2_L_00234028-02
1 43899U 25296LP  26070.40844907  .00000000  00000+0  00000-0 0  9997
2 43899  95.0000 324.0000 0000000   0.0000  54.0000 14.24551792    18
CTC2_L_00234028-03
1 43900U 24098OE  26070.40844907  .00000000  00000+0  00000-0 0  9999
2 43900  95.0000 324.0000 0000000   0.0000 144.0000 14.24551792    11
CTC2_L_00234028-04
1 43901U 23574YS  26070.40844907  .00000000  00000+0  00000-0 0  9998
2 43901  95.0000 324.0000 0000000   0.0000 234.0000 14.24551792    12
CTC2_L_00234029-01
1 43902U 24203IA  26070.40844907  .00000000  00000+0  00000-0 0  9999
2 43902  95.0000 336.0000 0000000   0.0000 336.0000 14.24551792    19
CTC2_L_00234029-02
1 43903U 23309IH  26070.40844907  .00000000  00000+0  00000-0 0  9996
2 43903  95.0000 336.0000 0000000   0.0000  66.0000 14.24551792    10
CTC2_L_00234029-03
1 43904U 22245YN  26070.40844907  .00000000  00000+0  00000-0 0  9995
2 43904  95.0000 336.0000 0000000   0.0000 156.0000 14.24551792    11
CTC2_L_00234029-04
1 43905U 23133ZY  26070.40844907  .00000000  00000+0  00000-0 0  9993
2 43905  95.0000 336.0000 0000000   0.0000 246.0000 14.24551792    12
CTC2_L_00234030-01
1 43906U 25307MU  26070.40844907  .00000000  00000+0  00000-0 0  9999
2 43906  95.0000 348.0000 0000000   0.0000 348.0000 14.24551792    19
CTC2_L_00234030-02
1 43907U 25812KI  26070.40844907  .00000000  00000+0  00000-0 0  9991
2 43907  95.0000 348.0000 0000000   0.0000  78.0000 14.24551792    10
CTC2_L_00234030-03
1 43908U 23530NN  26070.40844907  .00000000  00000+0  00000-0 0  9997
2 43908  95.0000 348.0000 0000000   0.0000 168.0000 14.24551792    11
CTC2_L_00234030-04
1 43909U 25713F   26070.40844907  .00000000  00000+0  00000-0 0  9993
2 43909  95.0000 348.0000 0000000   0.0000 258.0000 14.24551792    12
